0 SCOUT B DEB
1 29176U 65063AA  13266.39962268 -.00000019  00000-0  10000-3 0   365
2 29176 069.2420 174.6079 0625656 093.3039 303.0923 11.91282143369517
